FLOCK 4G-21             
1 62651U 25009AU  26068.19487675  .00013648  00000+0  49619-3 0  9998
2 62651  97.4032 151.1274 0000465 329.5782  30.5431 15.28381075 63677
STARLINK-36334          
1 67471U 26008AC  26068.40200992  .00042737  00000+0  15508-2 0  9992
2 67471  43.0015 207.2306 0004619 300.6201  59.4195 15.27631199  9525
